{
    "links": {
        "self": "http://www.neowsapp.com/rest/v1/neo/3781447?api_key=iIulBulltgU6a56xZRHN4H3l9WmuAYTsLGpBGhQ2"
    },
    "id": "3781447",
    "neo_reference_id": "3781447",
    "name": "(2017 RG15)",
    "designation": "2017 RG15",
    "nasa_jpl_url": "http://ssd.jpl.nasa.gov/sbdb.cgi?sstr=3781447",
    "absolute_magnitude_h": 23.7,
    "estimated_diameter": {
        "kilometers": {
            "estimated_diameter_min": 0.0483676488,
            "estimated_diameter_max": 0.1081533507
        },
        "meters": {
            "estimated_diameter_min": 48.3676488219,
            "estimated_diameter_max": 108.1533506775
        },
        "miles": {
            "estimated_diameter_min": 0.0300542543,
            "estimated_diameter_max": 0.0672033557
        },
        "feet": {
            "estimated_diameter_min": 158.6865169607,
            "estimated_diameter_max": 354.8338390368
        }
    },
    "is_potentially_hazardous_asteroid": false,
    "close_approach_data": [
        {
            "close_approach_date": "2017-09-01",
            "close_approach_date_full": "2017-Sep-01 10:38",
            "epoch_date_close_approach": 1504262280000,
            "relative_velocity": {
                "kilometers_per_second": "12.447198556",
                "kilometers_per_hour": "44809.9148017001",
                "miles_per_hour": "27843.1384499786"
            },
            "miss_distance": {
                "astronomical": "0.1130592769",
                "lunar": "43.9800587141",
                "kilometers": "16913427.007980203",
                "miles": "10509516.2100166814"
            },
            "orbiting_body": "Earth"
        }
    ],
    "orbital_data": {
        "orbit_id": "6",
        "orbit_determination_date": "2017-12-28 06:24:00",
        "first_observation_date": "2017-09-14",
        "last_observation_date": "2017-09-27",
        "data_arc_in_days": 13,
        "observations_used": 29,
        "orbit_uncertainty": "8",
        "minimum_orbit_intersection": ".034916",
        "jupiter_tisserand_invariant": "3.521",
        "epoch_osculation": "2458012.5",
        "eccentricity": ".5324381817933902",
        "semi_major_axis": "2.126662639666185",
        "inclination": "6.824868881850343",
        "ascending_node_longitude": "339.2417020727589",
        "orbital_period": "1132.781973637079",
        "perihelion_distance": ".9943462505143894",
        "perihelion_argument": "319.8739173418548",
        "aphelion_distance": "3.258979028817979",
        "perihelion_time": "2457968.983384280440",
        "mean_anomaly": "13.82965303441585",
        "mean_motion": ".3178016673801141",
        "equinox": "J2000",
        "orbit_class": {
            "orbit_class_type": "APO",
            "orbit_class_description": "Near-Earth asteroid orbits which cross the Earth’s orbit similar to that of 1862 Apollo",
            "orbit_class_range": "a (semi-major axis) > 1.0 AU; q (perihelion) < 1.017 AU"
        }
    },
    "is_sentry_object": false
}